OBJECT_NAME,OBJECT_ID,EPOCH,MEAN_MOTION,ECCENTRICITY,INCLINATION,RA_OF_ASC_NODE,ARG_OF_PERICENTER,MEAN_ANOMALY,EPHEMERIS_TYPE,CLASSIFICATION_TYPE,NORAD_CAT_ID,ELEMENT_SET_NO,REV_AT_EPOCH,BSTAR,MEAN_MOTION_DOT,MEAN_MOTION_DDOT
CUTE-1 (CO-55),2003-031E,2026-06-19T06:50:33.696672,14.24336816,.00096795,98.6736,178.8176,171.9692,188.1644,0,U,27844,999,19197,.10995891E-3,.21E-5,0
CUBESAT XI-IV (CO-57),2003-031J,2026-06-18T23:50:37.489344,14.23621647,.00091459,98.6765,178.2408,191.5731,168.5239,0,U,27848,999,19163,.94896066E-4,.173E-5,0
CUBESAT XI-V,2005-043F,2026-06-19T04:03:39.770784,14.72636023,.00137886,98.2987,325.8325,194.2954,165.7865,0,U,28895,999,10204,.1780152E-3,.1082E-4,0
CUTE-1.7+APD II (CO-65),2008-021C,2026-06-19T05:41:58.909632,15.09467527,.00095505,97.8277,151.6986,32.2622,327.9188,0,U,32785,999,98550,.3022279E-3,.4777E-4,0
CANX-2,2008-021H,2026-06-17T21:16:22.678176,15.05623552,.00114189,97.8640,148.6774,48.7586,311.4622,0,U,32790,999,98491,.25994567E-3,.369E-4,0
SEEDS II (CO-66),2008-021J,2026-06-18T10:35:22.532928,15.32786684,.000089,97.7517,167.3987,357.5135,2.6101,0,U,32791,999,98748,.44622E-3,.14056E-3,0
SWISSCUBE,2009-051B,2026-06-19T05:18:30.098016,14.62484946,.00060971,98.4033,78.1449,195.9849,164.1161,0,U,35932,999,88945,.15643339E-3,.743E-5,0
BEESAT-1,2009-051C,2026-06-19T05:33:36.700992,14.61723361,.00043449,98.3962,77.7869,209.2616,150.8342,0,U,35933,999,88948,.13563437E-3,.627E-5,0
ITUPSAT1,2009-051E,2026-06-19T05:23:04.265952,14.60443291,.00063309,98.4046,76.9691,226.3575,133.7100,0,U,35935,999,88903,.12728519E-3,.568E-5,0
TISAT 1,2010-035E,2026-06-19T06:32:57.196608,15.31774466,.00016826,98.0711,117.0067,165.4872,194.6416,0,U,36799,999,86802,.57203546E-3,.17485E-3,0
AEROCUBE 4.5A,2012-048K,2026-06-18T23:28:22.382976,15.97862216,.00193716,64.6225,20.3137,229.0136,130.9352,0,U,38767,999,37294,.9929062E-3,.461735E-2,.96258139E-4
STRAND-1,2013-009E,2026-06-19T06:48:49.386816,14.37164225,.00078356,98.3923,350.4666,218.3007,141.7624,0,U,39090,999,69736,.79421661E-4,.193E-5,0
BRITE-AUSTRIA,2013-009F,2026-06-19T07:08:40.083360,14.36542792,.00092316,98.3996,349.6811,229.4697,130.5686,0,U,39091,999,69735,.5550137E-4,.12E-5,0
NEE-01 PEGASO,2013-018B,2026-06-19T03:23:32.383392,14.93668156,.00132921,98.1227,314.3556,152.8656,207.3260,0,U,39151,999,71099,.24048162E-3,.2484E-4,0
POPACS 2,2013-055E,2026-06-19T06:09:35.415360,14.91258090,.04167483,80.9911,141.8234,187.1255,172.3929,0,U,39269,999,66352,.21242368E-3,.12578E-3,0
POPACS 3,2013-055F,2026-06-18T21:44:37.675104,14.56148407,.0552001,81.0000,227.3242,64.7663,300.9692,0,U,39270,999,63880,.182E-3,.775E-4,0
ZACUBE-1 (TSHEPISOSAT),2013-066B,2026-06-19T03:22:04.047168,15.01197255,.00410495,97.8075,132.4874,240.9478,118.7631,0,U,39417,999,68102,.18197503E-3,.2311E-4,0
WNISAT-1,2013-066H,2026-06-19T03:10:59.365920,14.58065199,.01620746,97.7204,319.1508,225.4216,133.3662,0,U,39423,999,66701,.1422641E-3,.733E-5,0
TRITON-1,2013-066M,2026-06-19T06:05:48.491808,14.81713216,.00885648,97.8248,80.0142,227.0667,132.3092,0,U,39427,999,67439,.22063487E-3,.1802E-4,0
GOMX-1,2013-066Q,2026-06-19T07:07:28.039584,14.69466237,.01301215,97.6475,10.6258,70.8662,290.6579,0,U,39430,999,67022,.21021487E-3,.1368E-4,0
CUBEBUG-2 (LO-74),2013-066AA,2026-06-19T06:34:08.824800,14.93777947,.00582556,97.8910,119.2605,22.3553,338.0186,0,U,39440,999,67730,.39344021E-3,.425E-4,0
NEE-02 KRYSAOR,2013-066AB,2026-06-19T07:05:51.748512,14.86625800,.00675744,97.8892,109.4951,63.4600,297.3522,0,U,39441,999,67651,.22033642E-3,.1979E-4,0
FUNCUBE-1 (AO-73),2013-066AE,2026-06-19T04:16:01.296192,15.09509465,.00358136,97.8280,141.6651,193.8693,166.1555,0,U,39444,999,67996,.30581626E-3,.4907E-4,0
UWE-3,2013-066AG,2026-06-19T03:41:46.643712,14.97037831,.00473207,97.8700,126.2408,314.5576,45.1785,0,U,39446,999,67787,.31637826E-3,.3664E-4,0
BRITE-CA1 (TORONTO),2014-033L,2026-06-19T01:49:36.701472,14.72678989,.00772116,97.9743,298.9692,270.8542,88.3819,0,U,40020,999,64249,.93566608E-4,.57E-5,0
DUCHIFAT-1,2014-033M,2026-06-18T16:25:31.161216,15.64848252,.0002814,98.0447,229.0553,113.8680,246.2872,0,U,40021,999,65598,.89915901E-3,.88318E-3,0
NANOSATC-BR1,2014-033Q,2026-06-19T00:50:13.653600,15.31505041,.00045453,98.0717,202.5867,158.1624,201.9810,0,U,40024,999,65426,.44236613E-3,.13384E-3,0
QB50P1,2014-033R,2026-06-19T06:13:02.525664,15.18285787,.00080059,98.0964,181.5504,207.6997,152.3810,0,U,40025,999,65334,.33443702E-3,.6785E-4,0
QB50P2,2014-033Y,2026-06-18T22:46:54.290208,15.15176502,.0008169,98.0753,166.9392,158.0702,202.0879,0,U,40032,999,65293,.31389E-3,.582E-4,0
PERSEUS-M2,2014-033AD,2026-06-19T06:30:22.677984,14.95514598,.00104797,97.9965,120.8542,296.5159,63.4986,0,U,40037,999,65109,.13174471E-3,.1399E-4,0
